KUIPER-00035            
1 63748U 25088AA  25268.05686763  .00004622  00000+0  63471-3 0  9992
2 63748  51.8998 126.5309 0004272 237.9003 122.1545 14.79943996 22987
KUIPER-00037            
1 63749U 25088AB  25267.85554779 -.00006397  00000+0 -80933-3 0  9996
2 63749  51.8988 126.3781 0006845 184.1917 175.8989 14.79984659 23758
KUIPER-00038            
1 63750U 25088AC  25268.29253207  .00001510  00000+0  23938-3 0  9991
2 63750  51.9006 108.9147 0005301 250.4250 109.6139 14.77596729 23035
KUIPER-00039            
1 64500U 25134A   25268.33339120 -.01792146  00000+0 -22983+0 0  9991
2 64500  51.8989 244.2957 0013304 108.4870 329.3260 14.84234246  5715
KUIPER-00040            
1 64501U 25134B   25268.16964373 -.00002042  00000+0 -23743-3 0  9994
2 64501  51.8987 256.1699 0019157  85.4851 274.8300 14.79943472 15402
KUIPER-00041            
1 64502U 25134C   25268.23616764  .00003299  00000+0  46090-3 0  9994
2 64502  51.8983 257.2370 0015206  78.9474 281.3197 14.79960541 15397
KUIPER-00042            
1 64503U 25134D   25268.16938285  .00002314  00000+0  33324-3 0  9995
2 64503  51.8985 253.4962 0014415  88.0235 272.2378 14.79815003 15441
KUIPER-00043            
1 64504U 25134E   25268.33339120 -.00775056  00000+0 -88228-1 0  9991
2 64504  51.8959 245.4121 0006004  77.1157 264.4606 14.88567507  5818
